ORBCOMM FM24            
1 25478U 98053D   24362.46756957  .00003538  00000+0  12234-2 0  9999
2 25478  45.0089   2.8225 0001230 340.9123  19.1679 14.37245236372733
ORBCOMM FM25            
1 25479U 98053E   24362.50593074  .00003388  00000+0  11741-2 0  9999
2 25479  45.0081   0.8959 0001876  86.0385 274.0677 14.37228243373035
ORBCOMM FM26            
1 25480U 98053F   24362.48094500  .00002816  00000+0  99996-3 0  9992
2 25480  45.0079 356.3083 0003717 128.3655 231.7528 14.36420148372959
ORBCOMM FM27            
1 25481U 98053G   24362.49552456  .00003652  00000+0  12618-2 0  9997
2 25481  45.0063   1.1935 0002153 297.5269  62.5360 14.37230642372961
ORBCOMM FM28            
1 25482U 98053H   24362.56098744  .00003232  00000+0  11156-2 0  9991
2 25482  45.0059 298.6904 0002515 156.4137 203.6827 14.37522110373652
ORBCOMM FM30            
1 25980U 99065A   24362.48966182  .00002399  00000+0  85647-3 0  9999
2 25980  45.0290 182.0143 0006704 220.7769 139.2578 14.36565227309755
ORBCOMM FM31            
1 25981U 99065B   24362.52733145  .00002768  00000+0  98128-3 0  9994
2 25981  45.0204 175.3907 0003898 238.5263 121.5204 14.36538168309317
ORBCOMM FM32            
1 25982U 99065C   24362.52846247  .00002256  00000+0  82438-3 0  9992
2 25982  45.0131 190.8017 0005574 243.6020 116.4256 14.35574581309927
